LEMUR-1                 
1 40044U 14033AL  22253.76144969  .00000964  00000+0  14696-3 0  9990
2 40044  97.6596  77.7083 0056952 242.2746 117.2680 14.74984849442050
LEMUR-2-XIAOQING        
1 41871U 16062C   22253.70282130  .00023280  00000+0  56745-3 0  9997
2 41871  51.6340 296.6738 0002515 276.9402  83.1297 15.40782199323088
LEMUR-2-SOKOLSKY        
1 41872U 16062D   22254.19142856  .00019353  00000+0  47606-3 0  9994
2 41872  51.6782 304.4166 0003050  21.4618 338.6495 15.40625950323123
LEMUR-2-ANUBHAVTHAKUR   
1 41873U 16062E   22254.48974777  .00008089  00000+0  29819-3 0  9992
2 41873  51.6802 348.6869 0007039 224.5014 135.5401 15.28661081322495
LEMUR-2-WINGO           
1 41874U 16062F   22253.67280017  .00020480  00000+0  52242-3 0  9995
2 41874  51.6478 307.7390 0007535 161.9900 198.1353 15.39457767322946
LEMUR-2-JOBANPUTRA      
1 41991U 17008AV  22254.15340631  .00019925  00000+0  59669-3 0  9991
2 41991  97.2519 314.0262 0004506 289.5506  70.5251 15.34544498309310
LEMUR-2-SPIRE-MINIONS   
1 41992U 17008AW  22253.67070777  .00020833  00000+0  54750-3 0  9995
2 41992  97.2608 318.3134 0003604 271.4622  88.6211 15.38617113309508
LEMUR-2-SATCHMO         
1 41993U 17008AX  22253.72965288  .00012860  00000+0  40207-3 0  9995
2 41993  97.2540 314.0505 0004339 293.6305  66.4482 15.33270323309270
LEMUR-2-SMITA-SHARAD    
1 41994U 17008AY  22254.11299143  .00021815  00000+0  57378-3 0  9997
2 41994  97.2598 318.5149 0003782 269.3929  90.6883 15.38581199309567
LEMUR-2-RDEATON         
1 41995U 17008AZ  22253.70114054  .00012142  00000+0  38055-3 0  9993
2 41995  97.2567 314.2525 0005342 311.3588  48.7194 15.33202856309955
LEMUR-2-TACHIKOMA       
1 41996U 17008BA  22254.14253840  .00020229  00000+0  54022-3 0  9997
2 41996  97.2641 318.7905 0004193 295.8092  64.2720 15.38126085309445
LEMUR-2-NOGUECORREIG    
1 41997U 17008BB  22254.14617158  .00025362  00000+0  66252-3 0  9995
2 41997  97.2620 319.2981 0004406 292.0120  68.0658 15.38760626309583
LEMUR-2-MIA-GRACE       
1 41998U 17008BC  22253.70788180  .00012451  00000+0  39237-3 0  9999
2 41998  97.2545 313.8314 0005177 313.4893  46.5919 15.33021770309172
LEMUR-2-ANGELA          
1 42752U 17019B   22254.38712359  .00026246  00000+0  54556-3 0  9998
2 42752  51.6337 179.4097 0006254  25.4494 334.6799 15.45450955294457
LEMUR-2-JENNYBARNA      
1 42753U 17019C   22254.15434121  .00085341  00000+0  10691-2 0  9994
2 42753  51.6273 149.0018 0003503  58.1988 301.9345 15.59030410294794
LEMUR-2-ROBMOORE        
1 42754U 17019D   22254.21094328  .00028545  00000+0  60963-3 0  9994
2 42754  51.6349 181.9349 0005715  27.3483 332.7804 15.44610040294380
LEMUR-2-SPIROVISION     
1 42755U 17019E   22254.14363644  .00070972  00000+0  92168-3 0  9990
2 42755  51.6314 149.9778 0004126  64.9430  85.2145 15.58152076294694
LEMUR-2-SHAINAJOHL      
1 42771U 17036G   22254.34686015  .00016524  00000+0  52885-3 0  9994
2 42771  97.1947 293.5373 0011071  20.3824 339.7858 15.32413545290132
LEMUR-2-XUENITERENCE    
1 42772U 17036H   22254.35857418  .00020642  00000+0  62631-3 0  9999
2 42772  97.1862 293.7353 0010262  16.8412 343.3170 15.34078886290183
LEMUR-2-LUCYBRYCE       
1 42773U 17036J   22254.08551575  .00015770  00000+0  54634-3 0  9995
2 42773  97.1980 293.3755 0011584  22.1063 338.0675 15.29858651290054
LEMUR-2-KUNGFOO         
1 42774U 17036K   22253.61376860  .00015163  00000+0  48094-3 0  9995
2 42774  97.1944 293.2879 0010542  21.2846 338.8833 15.32726475290048
LEMUR-2-LYNSEY-SYMO     
1 42779U 17036Q   22253.67675299  .00018589  00000+0  53310-3 0  9996
2 42779  97.1972 298.0650 0008387  22.7239 337.4375 15.35895032290315
LEMUR-2-LISASAURUS      
1 42780U 17036R   22254.10412597  .00019032  00000+0  60603-3 0  9994
2 42780  97.1972 294.9230 0009610  28.5227 331.6539 15.32561850290163
LEMUR-2-SAM-AMELIA      
1 42781U 17036S   22253.62366380  .00009172  00000+0  31344-3 0  9993
2 42781  97.1979 295.1063 0010411  28.6890 331.4922 15.30448290290104
LEMUR-2-MCPEAKE         
1 42782U 17036T   22253.66277735  .00014540  00000+0  44984-3 0  9992
2 42782  97.1956 296.2348 0008891  26.6491 333.5207 15.33547164290216
LEMUR-2-GREENBERG       
1 42837U 17042N   22254.13732124  .00002892  00000+0  27604-3 0  9998
2 42837  97.4188 107.0204 0014200  72.6627 287.6146 14.93954188281067
LEMUR-2-ANDIS           
1 42838U 17042P   22254.53512720  .00002773  00000+0  26477-3 0  9996
2 42838  97.4171 107.3322 0014255  71.1768 289.0998 14.93974008281125
LEMUR-2-MONSON          
1 42839U 17042Q   22253.83026750  .00001946  00000+0  18834-3 0  9991
2 42839  97.4190 106.4160 0014030  73.2523 287.0236 14.93751072280991
LEMUR-2-FURIAUS         
1 42840U 17042R   22254.09394108  .00002226  00000+0  21695-3 0  9998
2 42840  97.4227 107.0254 0014458  73.2063 287.0743 14.93350422281031
LEMUR-2-PETERG          
1 42841U 17042S   22254.11553462  .00000984  00000+0  97457-4 0  9991
2 42841  97.4251 108.1726 0013788  68.5740 291.6951 14.93853201281102
LEMUR-2-DEMBITZ         
1 42842U 17042T   22254.15189396  .00002942  00000+0  27919-3 0  9998
2 42842  97.4220 108.0742 0013961  69.9443 290.3280 14.94184295281117
LEMUR-2-ZACHARY         
1 42845U 17042W   22254.11637300  .00002851  00000+0  26605-3 0  9990
2 42845  97.4104 107.1938 0013785  70.0676 290.2029 14.94873557281153
LEMUR-2-MCCAFFERTY      
1 43123U 18004N   22254.21503630  .00025835  00000+0  67457-3 0  9995
2 43123  97.3725 333.9281 0006718  48.5202 311.6619 15.38758790259747
LEMUR-2-PETERWEBSTER    
1 43124U 18004P   22253.74887704  .00022320  00000+0  59818-3 0  9998
2 43124  97.3727 333.0553 0006958  51.4815 308.7053 15.37982343259653
LEMUR-2-BROWNCOW        
1 43125U 18004Q   22254.18316201  .00033798  00000+0  83702-3 0  9997
2 43125  97.3784 335.4172 0006237  44.5821 315.5926 15.40326798259824
LEMUR-2-DAVEWILSON      
1 43126U 18004R   22253.76377343  .00026702  00000+0  65439-3 0  9999
2 43126  97.3766 334.8235 0006344  45.5746 314.6018 15.40693470259752
LEMUR-2-MARSHALL        
1 43165U 18010C   22253.98097093  .00016282  00000+0  53225-3 0  9996
2 43165  82.9167 345.1118 0025043  30.5135 329.7558 15.31284841257569
LEMUR-2-TALLHAMN-ATC    
1 43167U 18010E   22254.30184511  .00016945  00000+0  62773-3 0  9991
2 43167  82.9207 351.3150 0020983  55.3322 304.9891 15.27310589257213
LEMUR-2-JIN-LUEN        
1 43182U 18014C   22253.68029586  .00004129  00000+0  33944-3 0  9991
2 43182  97.6369 155.8821 0013887  30.0722 330.1296 14.99620115251663
LEMUR-2-URAMCHANSOL     
1 43183U 18014D   22254.15917896  .00004893  00000+0  40090-3 0  9993
2 43183  97.6419 156.5749 0015534  23.4193 336.7734 14.99645805251747
LEMUR-2-KADI            
1 43184U 18014E   22253.68293937  .00004076  00000+0  33914-3 0  9994
2 43184  97.6387 155.9561 0014071  27.0805 333.1149 14.99163847251665
LEMUR-2-THENICKMOLO     
1 43185U 18014F   22254.33239818  .00003279  00000+0  27227-3 0  9990
2 43185  97.6378 156.8406 0014448  14.1165 104.1614 14.99375365251762
LEMUR-2-VU              
1 43558U 18046E   22254.15633505  .00047010  00000+0  77088-3 0  9991
2 43558  51.6357 102.0591 0004928 354.2059   5.8873 15.51961854232837
LEMUR-2-ALEXANDER       
1 43559U 18046F   22254.37137960  .00051759  00000+0  78726-3 0  9995
2 43559  51.6359  98.2800 0003624  13.0409 347.0675 15.54010836232682
LEMUR-2-YUASA           
1 43560U 18046G   22253.84706104  .00050761  00000+0  80289-3 0  9999
2 43560  51.6371 103.7531 0003991  22.3707 337.7457 15.52936766232784
LEMUR-2-TOMHENDERSON    
1 43561U 18046H   22254.21504813  .00039623  00000+0  70019-3 0  9999
2 43561  51.6373 106.1635 0004336  20.4290 339.6871 15.49935900232347
LEMUR-2-ZUPANSKI        
1 43695U 18088F   22253.75433536  .00013580  00000+0  45858-3 0  9991
2 43695  85.0239 256.4315 0013652 167.1703 192.9894 15.30451539212940
LEMUR-2-CHANUSIAK       
1 43697U 18088H   22254.50675785  .00018381  00000+0  59691-3 0  9995
2 43697  85.0304 255.9240 0014026 143.7963 216.4237 15.31714712213186
LEMUR-2-ORZULAK         
1 43731U 18096N   22254.22450726  .00053821  00000+0  98524-3 0  9994
2 43731  97.3611 340.5012 0012239  99.6917 260.5717 15.49086795211501
LEMUR-2-KOBYSZCZE       
1 43732U 18096P   22254.20673845  .00054908  00000+0  99032-3 0  9994
2 43732  97.3633 340.9750 0012023  97.2889 262.9729 15.49509456211527
LEMUR-2-DULY            
1 43745U 18096AC  22253.76079788  .00040877  00000+0  79212-3 0  9992
2 43745  97.3625 340.0793 0013586  98.0802 262.1990 15.47491442211445
LEMUR-2-VLADIMIR        
1 43746U 18096AD  22254.23283339  .00063015  00000+0  10431-2 0  9991
2 43746  97.3623 341.5428 0010032 100.0973 260.1411 15.51926088211609
LEMUR-2-CHRISTINAHOLT   
1 43882U 18111G   22253.78899744  .00003683  00000+0  30130-3 0  9996
2 43882  97.6637 160.1358 0011281  19.5486 340.6168 14.99901580202553
LEMUR-2-TINYKEV         
1 43883U 18111H   22253.71363694  .00004899  00000+0  39596-3 0  9995
2 43883  97.6676 160.2685 0012354  17.6289 342.5361 15.00200425202552
LEMUR-2-REMY-COLTON     
1 43884U 18111J   22254.46559120  .00004084  00000+0  32998-3 0  9995
2 43884  97.6635 161.5358 0007092  69.5365 290.6620 15.00346648200695
LEMUR-2-GUSTAVO         
1 43885U 18111K   22253.71373101  .00003600  00000+0  29417-3 0  9991
2 43885  97.6692 160.4249 0013709  24.3001 335.8866 14.99946170202558
LEMUR-2-ZO              
1 43886U 18111L   22253.70168448  .00004844  00000+0  39294-3 0  9992
2 43886  97.6711 160.6923 0015903  36.6840 323.5469 15.00032276202567
LEMUR-2-NATALIEMURRAY   
1 43887U 18111M   22254.32465083  .00003908  00000+0  31743-3 0  9998
2 43887  97.6671 161.6339 0008556   3.9566 356.1724 15.00165693202671
LEMUR-2-SARAHBETTYBOO   
1 43888U 18111N   22254.28402112  .00004684  00000+0  37866-3 0  9992
2 43888  97.6660 161.8256 0014084  55.0487 305.2057 15.00198129202677
LEMUR-2-DAISY-HARPER    
1 43889U 18111P   22254.21486423  .00004849  00000+0  39144-3 0  9997
2 43889  97.6665 161.9549 0013385  58.3499 301.9028 15.00243526202663
